[
  {
    "OBJECT_NAME": "STARLINK-31270",
    "OBJECT_ID": "24044C",
    "EPOCH": "2025-11-11T06:26:46.134528",
    "MEAN_MOTION": 15.27576091,
    "ECCENTRICITY": 9.83e-05,
    "INCLINATION": 43.0061,
    "RA_OF_ASC_NODE": 55.8915,
    "ARG_OF_PERICENTER": 291.1148,
    "MEAN_ANOMALY": 68.9598,
    "EPHEMERIS_TYPE": 0,
    "CLASSIFICATION_TYPE": "U",
    "NORAD_CAT_ID": 59154,
    "ELEMENT_SET_NO": 999,
    "REV_AT_EPOCH": 9548,
    "BSTAR": 4.0307e-05,
    "MEAN_MOTION_DOT": 8.47e-06,
    "MEAN_MOTION_DDOT": 0.0,
    "TLE_LINE1": "1 59154U 24044C   25315.26858952  .00000847  00000+0  40307-4 0  9995",
    "TLE_LINE2": "2 59154  43.0061  55.8915 0000983 291.1148  68.9598 15.27576091 95483",
    "COMMENT": "Grouped by shell and plane from TLE"
  },
  {
    "OBJECT_NAME": "STARLINK-31341",
    "OBJECT_ID": "24044D",
    "EPOCH": "2025-11-11T06:45:50.240736",
    "MEAN_MOTION": 15.25907939,
    "ECCENTRICITY": 0.0001192,
    "INCLINATION": 43.0043,
    "RA_OF_ASC_NODE": 59.4386,
    "ARG_OF_PERICENTER": 296.7145,
    "MEAN_ANOMALY": 63.3584,
    "EPHEMERIS_TYPE": 0,
    "CLASSIFICATION_TYPE": "U",
    "NORAD_CAT_ID": 59155,
    "ELEMENT_SET_NO": 999,
    "REV_AT_EPOCH": 9541,
    "BSTAR": 1.1572e-05,
    "MEAN_MOTION_DOT": 4.5e-07,
    "MEAN_MOTION_DDOT": 0.0,
    "TLE_LINE1": "1 59155U 24044D   25315.28183149  .00000045  00000+0  11572-4 0  9999",
    "TLE_LINE2": "2 59155  43.0043  59.4386 0001192 296.7145  63.3584 15.25907939 95411",
    "COMMENT": "Grouped by shell and plane from TLE"
  },
  {
    "OBJECT_NAME": "STARLINK-31338",
    "OBJECT_ID": "24044E",
    "EPOCH": "2025-11-11T08:00:03.000384",
    "MEAN_MOTION": 15.27553347,
    "ECCENTRICITY": 0.0001085,
    "INCLINATION": 43.0019,
    "RA_OF_ASC_NODE": 59.097,
    "ARG_OF_PERICENTER": 264.2634,
    "MEAN_ANOMALY": 38.5643,
    "EPHEMERIS_TYPE": 0,
    "CLASSIFICATION_TYPE": "U",
    "NORAD_CAT_ID": 59156,
    "ELEMENT_SET_NO": 999,
    "REV_AT_EPOCH": 587,
    "BSTAR": 0.0012753999999999999,
    "MEAN_MOTION_DOT": 0.00034971,
    "MEAN_MOTION_DDOT": 0.0,
    "TLE_LINE1": "1 59156U 24044E   25315.33336806  .00034971  00000+0  12754-2 0  9992",
    "TLE_LINE2": "2 59156  43.0019  59.0970 0001085 264.2634  38.5643 15.27553347  5877",
    "COMMENT": "Grouped by shell and plane from TLE"
  },
  {
    "OBJECT_NAME": "STARLINK-31334",
    "OBJECT_ID": "24044F",
    "EPOCH": "2025-11-11T06:29:45.567456",
    "MEAN_MOTION": 15.27579511,
    "ECCENTRICITY": 8.2e-05,
    "INCLINATION": 43.0026,
    "RA_OF_ASC_NODE": 59.3459,
    "ARG_OF_PERICENTER": 315.3688,
    "MEAN_ANOMALY": 44.7097,
    "EPHEMERIS_TYPE": 0,
    "CLASSIFICATION_TYPE": "U",
    "NORAD_CAT_ID": 59157,
    "ELEMENT_SET_NO": 999,
    "REV_AT_EPOCH": 9541,
    "BSTAR": 8.4932e-05,
    "MEAN_MOTION_DOT": 2.076e-05,
    "MEAN_MOTION_DDOT": 0.0,
    "TLE_LINE1": "1 59157U 24044F   25315.27066629  .00002076  00000+0  84932-4 0  9999",
    "TLE_LINE2": "2 59157  43.0026  59.3459 0000820 315.3688  44.7097 15.27579511 95416",
    "COMMENT": "Grouped by shell and plane from TLE"
  },
  {
    "OBJECT_NAME": "STARLINK-31297",
    "OBJECT_ID": "24044G",
    "EPOCH": "2025-11-11T06:32:19.093344",
    "MEAN_MOTION": 15.27591297,
    "ECCENTRICITY": 3.02e-05,
    "INCLINATION": 43.0032,
    "RA_OF_ASC_NODE": 55.9154,
    "ARG_OF_PERICENTER": 22.775,
    "MEAN_ANOMALY": 337.3115,
    "EPHEMERIS_TYPE": 0,
    "CLASSIFICATION_TYPE": "U",
    "NORAD_CAT_ID": 59158,
    "ELEMENT_SET_NO": 999,
    "REV_AT_EPOCH": 9548,
    "BSTAR": 6.9194e-05,
    "MEAN_MOTION_DOT": 1.643e-05,
    "MEAN_MOTION_DDOT": 0.0,
    "TLE_LINE1": "1 59158U 24044G   25315.27244321  .00001643  00000+0  69194-4 0  9999",
    "TLE_LINE2": "2 59158  43.0032  55.9154 0000302  22.7750 337.3115 15.27591297 95486",
    "COMMENT": "Grouped by shell and plane from TLE"
  },
  {
    "OBJECT_NAME": "STARLINK-31182",
    "OBJECT_ID": "24044H",
    "EPOCH": "2025-11-11T07:12:48.795264",
    "MEAN_MOTION": 15.27571633,
    "ECCENTRICITY": 0.00012,
    "INCLINATION": 43.0,
    "RA_OF_ASC_NODE": 55.2739,
    "ARG_OF_PERICENTER": 283.1782,
    "MEAN_ANOMALY": 76.8936,
    "EPHEMERIS_TYPE": 0,
    "CLASSIFICATION_TYPE": "U",
    "NORAD_CAT_ID": 59159,
    "ELEMENT_SET_NO": 999,
    "REV_AT_EPOCH": 9549,
    "BSTAR": 3.334500000000001e-05,
    "MEAN_MOTION_DOT": 6.55e-06,
    "MEAN_MOTION_DDOT": 0.0,
    "TLE_LINE1": "1 59159U 24044H   25315.30056476  .00000655  00000+0  33345-4 0  9997",
    "TLE_LINE2": "2 59159  43.0000  55.2739 0001200 283.1782  76.8936 15.27571633 95499",
    "COMMENT": "Grouped by shell and plane from TLE"
  },
  {
    "OBJECT_NAME": "STARLINK-31327",
    "OBJECT_ID": "24044J",
    "EPOCH": "2025-11-11T06:36:01.715904",
    "MEAN_MOTION": 15.27570066,
    "ECCENTRICITY": 0.0002312,
    "INCLINATION": 43.0079,
    "RA_OF_ASC_NODE": 55.9373,
    "ARG_OF_PERICENTER": 278.7876,
    "MEAN_ANOMALY": 81.2713,
    "EPHEMERIS_TYPE": 0,
    "CLASSIFICATION_TYPE": "U",
    "NORAD_CAT_ID": 59160,
    "ELEMENT_SET_NO": 999,
    "REV_AT_EPOCH": 9548,
    "BSTAR": 2.5235e-05,
    "MEAN_MOTION_DOT": 4.32e-06,
    "MEAN_MOTION_DDOT": 0.0,
    "TLE_LINE1": "1 59160U 24044J   25315.27501986  .00000432  00000+0  25235-4 0  9998",
    "TLE_LINE2": "2 59160  43.0079  55.9373 0002312 278.7876  81.2713 15.27570066 95488",
    "COMMENT": "Grouped by shell and plane from TLE"
  },
  {
    "OBJECT_NAME": "STARLINK-31256",
    "OBJECT_ID": "24044K",
    "EPOCH": "2025-11-11T07:18:21.547584",
    "MEAN_MOTION": 15.27580012,
    "ECCENTRICITY": 9.55e-05,
    "INCLINATION": 42.9983,
    "RA_OF_ASC_NODE": 55.3031,
    "ARG_OF_PERICENTER": 280.989,
    "MEAN_ANOMALY": 79.0854,
    "EPHEMERIS_TYPE": 0,
    "CLASSIFICATION_TYPE": "U",
    "NORAD_CAT_ID": 59161,
    "ELEMENT_SET_NO": 999,
    "REV_AT_EPOCH": 9549,
    "BSTAR": 0.00010587000000000001,
    "MEAN_MOTION_DOT": 2.652e-05,
    "MEAN_MOTION_DDOT": 0.0,
    "TLE_LINE1": "1 59161U 24044K   25315.30441606  .00002652  00000+0  10587-3 0  9994",
    "TLE_LINE2": "2 59161  42.9983  55.3031 0000955 280.9890  79.0854 15.27580012 95492",
    "COMMENT": "Grouped by shell and plane from TLE"
  },
  {
    "OBJECT_NAME": "STARLINK-31272",
    "OBJECT_ID": "24044L",
    "EPOCH": "2025-11-11T07:23:54.379392",
    "MEAN_MOTION": 15.27575828,
    "ECCENTRICITY": 3.97e-05,
    "INCLINATION": 42.9976,
    "RA_OF_ASC_NODE": 55.3316,
    "ARG_OF_PERICENTER": 294.6575,
    "MEAN_ANOMALY": 65.4235,
    "EPHEMERIS_TYPE": 0,
    "CLASSIFICATION_TYPE": "U",
    "NORAD_CAT_ID": 59162,
    "ELEMENT_SET_NO": 999,
    "REV_AT_EPOCH": 9546,
    "BSTAR": 0.0001031,
    "MEAN_MOTION_DOT": 2.576e-05,
    "MEAN_MOTION_DDOT": 0.0,
    "TLE_LINE1": "1 59162U 24044L   25315.30826828  .00002576  00000+0  10310-3 0  9997",
    "TLE_LINE2": "2 59162  42.9976  55.3316 0000397 294.6575  65.4235 15.27575828 95461",
    "COMMENT": "Grouped by shell and plane from TLE"
  },
  {
    "OBJECT_NAME": "STARLINK-31278",
    "OBJECT_ID": "24044M",
    "EPOCH": "2025-11-11T07:29:27.530016",
    "MEAN_MOTION": 15.27573402,
    "ECCENTRICITY": 0.0001411,
    "INCLINATION": 43.0015,
    "RA_OF_ASC_NODE": 55.3593,
    "ARG_OF_PERICENTER": 259.251,
    "MEAN_ANOMALY": 100.8183,
    "EPHEMERIS_TYPE": 0,
    "CLASSIFICATION_TYPE": "U",
    "NORAD_CAT_ID": 59163,
    "ELEMENT_SET_NO": 999,
    "REV_AT_EPOCH": 9546,
    "BSTAR": 6.3429e-05,
    "MEAN_MOTION_DOT": 1.483e-05,
    "MEAN_MOTION_DDOT": 0.0,
    "TLE_LINE1": "1 59163U 24044M   25315.31212419  .00001483  00000+0  63429-4 0  9990",
    "TLE_LINE2": "2 59163  43.0015  55.3593 0001411 259.2510 100.8183 15.27573402 95461",
    "COMMENT": "Grouped by shell and plane from TLE"
  },
  {
    "OBJECT_NAME": "STARLINK-31309",
    "OBJECT_ID": "24044N",
    "EPOCH": "2025-11-11T07:35:00.496608",
    "MEAN_MOTION": 15.2756402,
    "ECCENTRICITY": 0.0001546,
    "INCLINATION": 43.0006,
    "RA_OF_ASC_NODE": 55.3886,
    "ARG_OF_PERICENTER": 284.6834,
    "MEAN_ANOMALY": 75.3846,
    "EPHEMERIS_TYPE": 0,
    "CLASSIFICATION_TYPE": "U",
    "NORAD_CAT_ID": 59164,
    "ELEMENT_SET_NO": 999,
    "REV_AT_EPOCH": 9549,
    "BSTAR": 0.00012823,
    "MEAN_MOTION_DOT": 3.266e-05,
    "MEAN_MOTION_DDOT": 0.0,
    "TLE_LINE1": "1 59164U 24044N   25315.31597797  .00003266  00000+0  12823-3 0  9998",
    "TLE_LINE2": "2 59164  43.0006  55.3886 0001546 284.6834  75.3846 15.27564020 95498",
    "COMMENT": "Grouped by shell and plane from TLE"
  },
  {
    "OBJECT_NAME": "STARLINK-31325",
    "OBJECT_ID": "24044P",
    "EPOCH": "2025-11-11T07:38:42.066816",
    "MEAN_MOTION": 15.2757338,
    "ECCENTRICITY": 0.0001374,
    "INCLINATION": 43.0034,
    "RA_OF_ASC_NODE": 55.4081,
    "ARG_OF_PERICENTER": 274.5327,
    "MEAN_ANOMALY": 85.5368,
    "EPHEMERIS_TYPE": 0,
    "CLASSIFICATION_TYPE": "U",
    "NORAD_CAT_ID": 59165,
    "ELEMENT_SET_NO": 999,
    "REV_AT_EPOCH": 9546,
    "BSTAR": 5.6721e-05,
    "MEAN_MOTION_DOT": 1.299e-05,
    "MEAN_MOTION_DDOT": 0.0,
    "TLE_LINE1": "1 59165U 24044P   25315.31854244  .00001299  00000+0  56721-4 0  9992",
    "TLE_LINE2": "2 59165  43.0034  55.4081 0001374 274.5327  85.5368 15.27573380 95460",
    "COMMENT": "Grouped by shell and plane from TLE"
  },
  {
    "OBJECT_NAME": "STARLINK-31342",
    "OBJECT_ID": "24044Q",
    "EPOCH": "2025-11-11T07:44:15.866304",
    "MEAN_MOTION": 15.27558282,
    "ECCENTRICITY": 0.0001437,
    "INCLINATION": 43.0029,
    "RA_OF_ASC_NODE": 55.438,
    "ARG_OF_PERICENTER": 287.0507,
    "MEAN_ANOMALY": 73.0187,
    "EPHEMERIS_TYPE": 0,
    "CLASSIFICATION_TYPE": "U",
    "NORAD_CAT_ID": 59166,
    "ELEMENT_SET_NO": 999,
    "REV_AT_EPOCH": 9549,
    "BSTAR": 0.00023454000000000001,
    "MEAN_MOTION_DOT": 6.193e-05,
    "MEAN_MOTION_DDOT": 0.0,
    "TLE_LINE1": "1 59166U 24044Q   25315.32240586  .00006193  00000+0  23454-3 0  9996",
    "TLE_LINE2": "2 59166  43.0029  55.4380 0001437 287.0507  73.0187 15.27558282 95494",
    "COMMENT": "Grouped by shell and plane from TLE"
  }
]